start=new Date('2022-03-27T00:00:00.000Z').valueOf();
sats=[{"CLASSIFICATION_TYPE":"U","TIME_SYSTEM":"UTC","COUNTRY_CODE":"US","TLE_LINE2":"2 45757  53.0537 218.3196 0001579  64.3324 295.7828 15.06402744 98840","LAUNCH_DATE":"2020-06-13","OBJECT_ID":"2020-038AD","OBJECT_TYPE":"PAYLOAD","APOAPSIS":"548.299","PERIAPSIS":"546.112","MEAN_ANOMALY":"295.7828","BSTAR":"0.00011126000000","FILE":"3375650","EPHEMERIS_TYPE":"0","SEMIMAJOR_AXIS":"6925.340","NORAD_CAT_ID":"45757","PERIOD":"95.592","RA_OF_ASC_NODE":"218.3196","MEAN_MOTION_DOT":"0.00001376","REV_AT_EPOCH":"9884","DECAY_DATE":null,"ARG_OF_PERICENTER":"64.3324","TLE_LINE1":"1 45757U 20038AD  22085.83866391  .00001376  00000-0  11126-3 0  9993","RCS_SIZE":"LARGE","CENTER_NAME":"EARTH","REF_FRAME":"TEME","SITE":"AFETR","INCLINATION":"53.0537","GP_ID":"199777067","EPOCH":"2022-03-26T20:07:40.561824","OBJECT_NAME":"STARLINK-1486","MEAN_MOTION_DDOT":"0.0000000000000","MEAN_MOTION":"15.06402744","MEAN_ELEMENT_THEORY":"SGP4","ECCENTRICITY":"0.00015790","ELEMENT_SET_NO":"999"},{"ELEMENT_SET_NO":"999","ECCENTRICITY":"0.00014880","MEAN_ELEMENT_THEORY":"SGP4","MEAN_MOTION":"15.06394453","MEAN_MOTION_DDOT":"0.0000000000000","OBJECT_NAME":"STARLINK-1487","GP_ID":"199778319","EPOCH":"2022-03-26T16:45:59.586048","INCLINATION":"53.0545","SITE":"AFETR","REF_FRAME":"TEME","CENTER_NAME":"EARTH","RCS_SIZE":"LARGE","TLE_LINE1":"1 45758U 20038AE  22085.69860632 -.00000340  00000-0 -39169-5 0  9991","ARG_OF_PERICENTER":"59.8890","DECAY_DATE":null,"REV_AT_EPOCH":"9882","RA_OF_ASC_NODE":"218.9438","PERIOD":"95.592","MEAN_MOTION_DOT":"-0.00000340","NORAD_CAT_ID":"45758","SEMIMAJOR_AXIS":"6925.366","EPHEMERIS_TYPE":"0","FILE":"3375650","BSTAR":"-0.00000391690000","MEAN_ANOMALY":"300.2246","APOAPSIS":"548.261","PERIAPSIS":"546.200","OBJECT_TYPE":"PAYLOAD","OBJECT_ID":"2020-038AE","LAUNCH_DATE":"2020-06-13","TLE_LINE2":"2 45758  53.0545 218.9438 0001488  59.8890 300.2246 15.06394453 98822","COUNTRY_CODE":"US","TIME_SYSTEM":"UTC","CLASSIFICATION_TYPE":"U"},{"TIME_SYSTEM":"UTC","CLASSIFICATION_TYPE":"U","COUNTRY_CODE":"US","OBJECT_ID":"2020-038AF","LAUNCH_DATE":"2020-06-13","TLE_LINE2":"2 45759  53.0539 218.7226 0002040  70.7538 289.3671 15.06396595 98834","MEAN_ANOMALY":"289.3671","APOAPSIS":"548.637","PERIAPSIS":"545.811","OBJECT_TYPE":"PAYLOAD","BSTAR":"0.00022794000000","FILE":"3375650","SEMIMAJOR_AXIS":"6925.359","EPHEMERIS_TYPE":"0","REV_AT_EPOCH":"9883","DECAY_DATE":null,"MEAN_MOTION_DOT":"0.00003115","PERIOD":"95.592","RA_OF_ASC_NODE":"218.7226","NORAD_CAT_ID":"45759","CENTER_NAME":"EARTH","RCS_SIZE":"LARGE","TLE_LINE1":"1 45759U 20038AF  22085.74651849  .00003115  00000-0  22794-3 0  9991","ARG_OF_PERICENTER":"70.7538","INCLINATION":"53.0539","SITE":"AFETR","REF_FRAME":"TEME","MEAN_MOTION_DDOT":"0.0000000000000","OBJECT_NAME":"STARLINK-1493","EPOCH":"2022-03-26T17:54:59.197536","GP_ID":"199778069","MEAN_MOTION":"15.06396595","ECCENTRICITY":"0.00020400","MEAN_ELEMENT_THEORY":"SGP4","ELEMENT_SET_NO":"999"},{"COUNTRY_CODE":"US","CLASSIFICATION_TYPE":"U","TIME_SYSTEM":"UTC","LAUNCH_DATE":"2020-06-13","OBJECT_ID":"2020-038AG","TLE_LINE2":"2 45760  53.0555 219.0270 0001653  55.1564 304.9580 15.06395177 98830","APOAPSIS":"548.373","PERIAPSIS":"546.084","OBJECT_TYPE":"PAYLOAD","MEAN_ANOMALY":"304.9580","SEMIMAJOR_AXIS":"6925.363","EPHEMERIS_TYPE":"0","FILE":"3375650","BSTAR":"0.00004061800000","TLE_LINE1":"1 45760U 20038AG  22085.68386158  .00000323  00000-0  40618-4 0  9998","ARG_OF_PERICENTER":"55.1564","CENTER_NAME":"EARTH","RCS_SIZE":"LARGE","NORAD_CAT_ID":"45760","DECAY_DATE":null,"REV_AT_EPOCH":"9883","MEAN_MOTION_DOT":"0.00000323","PERIOD":"95.592","RA_OF_ASC_NODE":"219.0270","OBJECT_NAME":"STARLINK-1494","GP_ID":"199776817","EPOCH":"2022-03-26T16:24:45.640512","MEAN_MOTION_DDOT":"0.0000000000000","INCLINATION":"53.0555","SITE":"AFETR","REF_FRAME":"TEME","MEAN_MOTION":"15.06395177","ELEMENT_SET_NO":"999","MEAN_ELEMENT_THEORY":"SGP4","ECCENTRICITY":"0.00016530"},{"OBJECT_TYPE":"PAYLOAD","APOAPSIS":"368.960","PERIAPSIS":"364.135","MEAN_ANOMALY":"50.9637","EPHEMERIS_TYPE":"0","SEMIMAJOR_AXIS":"6744.682","BSTAR":"0.00110890000000","FILE":"3375254","COUNTRY_CODE":"US","CLASSIFICATION_TYPE":"U","TIME_SYSTEM":"UTC","TLE_LINE2":"2 45761  53.0514 145.3959 0003577 309.1060  50.9637 15.67330252 99866","LAUNCH_DATE":"2020-06-13","OBJECT_ID":"2020-038AH","MEAN_MOTION":"15.67330252","ELEMENT_SET_NO":"999","ECCENTRICITY":"0.00035770","MEAN_ELEMENT_THEORY":"SGP4","ARG_OF_PERICENTER":"309.1060","TLE_LINE1":"1 45761U 20038AH  22085.51631222  .00123140  00000-0  11089-2 0  9997","RCS_SIZE":"LARGE","CENTER_NAME":"EARTH","NORAD_CAT_ID":"45761","PERIOD":"91.876","RA_OF_ASC_NODE":"145.3959","MEAN_MOTION_DOT":"0.00123140","DECAY_DATE":null,"REV_AT_EPOCH":"9986","EPOCH":"2022-03-26T12:23:29.375808","GP_ID":"199743622","OBJECT_NAME":"STARLINK-1495","MEAN_MOTION_DDOT":"0.0000000000000","SITE":"AFETR","REF_FRAME":"TEME","INCLINATION":"53.0514"},{"MEAN_ELEMENT_THEORY":"SGP4","ECCENTRICITY":"0.00015500","ELEMENT_SET_NO":"999","MEAN_MOTION":"15.06398000","INCLINATION":"53.0534","SITE":"AFETR","REF_FRAME":"TEME","MEAN_MOTION_DDOT":"0.0000000000000","OBJECT_NAME":"STARLINK-1499","EPOCH":"2022-03-26T15:42:17.291520","GP_ID":"199777819","REV_AT_EPOCH":"9883","DECAY_DATE":null,"PERIOD":"95.592","RA_OF_ASC_NODE":"219.1502","MEAN_MOTION_DOT":"-0.00000641","NORAD_CAT_ID":"45762","CENTER_NAME":"EARTH","RCS_SIZE":"LARGE","TLE_LINE1":"1 45762U 20038AJ  22085.65436680 -.00000641  00000-0 -24152-4 0  9993","ARG_OF_PERICENTER":"69.3558","BSTAR":"-0.00002415200000","FILE":"3375650","SEMIMAJOR_AXIS":"6925.355","EPHEMERIS_TYPE":"0","MEAN_ANOMALY":"290.7597","APOAPSIS":"548.293","PERIAPSIS":"546.146","OBJECT_TYPE":"PAYLOAD","LAUNCH_DATE":"2020-06-13","OBJECT_ID":"2020-038AJ","TLE_LINE2":"2 45762  53.0534 219.1502 0001550  69.3558 290.7597 15.06398000 98832","TIME_SYSTEM":"UTC","CLASSIFICATION_TYPE":"U","COUNTRY_CODE":"US"},{"MEAN_MOTION":"15.76727864","ELEMENT_SET_NO":"999","MEAN_ELEMENT_THEORY":"SGP4","ECCENTRICITY":"0.00073410","ARG_OF_PERICENTER":"296.7081","TLE_LINE1":"1 45763U 20038AK  22085.74166950  .00004379  00000-0  30756-4 0  9991","RCS_SIZE":"LARGE","CENTER_NAME":"EARTH","NORAD_CAT_ID":"45763","PERIOD":"91.328","RA_OF_ASC_NODE":"92.3903","MEAN_MOTION_DOT":"0.00004379","REV_AT_EPOCH":"10080","DECAY_DATE":null,"GP_ID":"199778570","EPOCH":"2022-03-26T17:48:00.244800","OBJECT_NAME":"STARLINK-1501","MEAN_MOTION_DDOT":"0.0000000000000","REF_FRAME":"TEME","SITE":"AFETR","INCLINATION":"53.0475","OBJECT_TYPE":"PAYLOAD","APOAPSIS":"344.652","PERIAPSIS":"334.789","MEAN_ANOMALY":"63.3187","EPHEMERIS_TYPE":"0","SEMIMAJOR_AXIS":"6717.856","BSTAR":"0.00003075600000","FILE":"3375650","COUNTRY_CODE":"US","CLASSIFICATION_TYPE":"U","TIME_SYSTEM":"UTC","TLE_LINE2":"2 45763  53.0475  92.3903 0007341 296.7081  63.3187 15.76727864100805","LAUNCH_DATE":"2020-06-13","OBJECT_ID":"2020-038AK"},{"GP_ID":"199777318","EPOCH":"2022-03-26T17:07:13.002816","OBJECT_NAME":"STARLINK-1502","MEAN_MOTION_DDOT":"0.0000000000000","REF_FRAME":"TEME","SITE":"AFETR","INCLINATION":"53.0564","ARG_OF_PERICENTER":"63.6910","TLE_LINE1":"1 45764U 20038AL  22085.71334494 -.00001410  00000-0 -75769-4 0  9997","RCS_SIZE":"LARGE","CENTER_NAME":"EARTH","NORAD_CAT_ID":"45764","RA_OF_ASC_NODE":"218.8796","PERIOD":"95.592","MEAN_MOTION_DOT":"-0.00001410","REV_AT_EPOCH":"9884","DECAY_DATE":null,"ELEMENT_SET_NO":"999","MEAN_ELEMENT_THEORY":"SGP4","ECCENTRICITY":"0.00016230","MEAN_MOTION":"15.06394733","TLE_LINE2":"2 45764  53.0564 218.8796 0001623  63.6910 296.4246 15.06394733 98842","OBJECT_ID":"2020-038AL","LAUNCH_DATE":"2020-06-13","COUNTRY_CODE":"US","CLASSIFICATION_TYPE":"U","TIME_SYSTEM":"UTC","EPHEMERIS_TYPE":"0","SEMIMAJOR_AXIS":"6925.365","BSTAR":"-0.00007576900000","FILE":"3375650","OBJECT_TYPE":"PAYLOAD","APOAPSIS":"548.354","PERIAPSIS":"546.106","MEAN_ANOMALY":"296.4246"},{"TIME_SYSTEM":"UTC","CLASSIFICATION_TYPE":"U","COUNTRY_CODE":"US","OBJECT_ID":"2020-038AN","LAUNCH_DATE":"2020-06-13","TLE_LINE2":"2 45766  53.0535 219.2279 0001561  60.3941 299.7203 15.06398342 98818","MEAN_ANOMALY":"299.7203","APOAPSIS":"548.300","PERIAPSIS":"546.138","OBJECT_TYPE":"PAYLOAD","FILE":"3375650","BSTAR":"-0.00006224900000","SEMIMAJOR_AXIS":"6925.354","EPHEMERIS_TYPE":"0","REV_AT_EPOCH":"9881","DECAY_DATE":null,"PERIOD":"95.592","RA_OF_ASC_NODE":"219.2279","MEAN_MOTION_DOT":"-0.00001209","NORAD_CAT_ID":"45766","CENTER_NAME":"EARTH","RCS_SIZE":"LARGE","TLE_LINE1":"1 45766U 20038AN  22085.63594431 -.00001209  00000-0 -62249-4 0  9994","ARG_OF_PERICENTER":"60.3941","INCLINATION":"53.0535","SITE":"AFETR","REF_FRAME":"TEME","MEAN_MOTION_DDOT":"0.0000000000000","OBJECT_NAME":"STARLINK-1509","EPOCH":"2022-03-26T15:15:45.588384","GP_ID":"199777068","MEAN_MOTION":"15.06398342","ECCENTRICITY":"0.00015610","MEAN_ELEMENT_THEORY":"SGP4","ELEMENT_SET_NO":"999"},{"BSTAR":"0.00005233800000","FILE":"3375650","SEMIMAJOR_AXIS":"6925.361","EPHEMERIS_TYPE":"0","APOAPSIS":"548.346","PERIAPSIS":"546.105","OBJECT_TYPE":"PAYLOAD","MEAN_ANOMALY":"295.0963","OBJECT_ID":"2020-038AP","LAUNCH_DATE":"2020-06-13","TLE_LINE2":"2 45767  53.0551 218.9689 0001618  65.0193 295.0963 15.06396042 98820","CLASSIFICATION_TYPE":"U","TIME_SYSTEM":"UTC","COUNTRY_CODE":"US","MEAN_ELEMENT_THEORY":"SGP4","ECCENTRICITY":"0.00016180","ELEMENT_SET_NO":"999","MEAN_MOTION":"15.06396042","INCLINATION":"53.0551","SITE":"AFETR","REF_FRAME":"TEME","OBJECT_NAME":"STARLINK-1511","EPOCH":"2022-03-26T16:40:40.544544","GP_ID":"199778320","MEAN_MOTION_DDOT":"0.0000000000000","NORAD_CAT_ID":"45767","DECAY_DATE":null,"REV_AT_EPOCH":"9882","MEAN_MOTION_DOT":"0.00000498","PERIOD":"95.592","RA_OF_ASC_NODE":"218.9689","TLE_LINE1":"1 45767U 20038AP  22085.69491371  .00000498  00000-0  52338-4 0  9995","ARG_OF_PERICENTER":"65.0193","CENTER_NAME":"EARTH","RCS_SIZE":"LARGE"}];
